{
    "links": {
        "self": "http://www.neowsapp.com/rest/v1/neo/3654335?api_key=iIulBulltgU6a56xZRHN4H3l9WmuAYTsLGpBGhQ2"
    },
    "id": "3654335",
    "neo_reference_id": "3654335",
    "name": "(2013 XU3)",
    "designation": "2013 XU3",
    "nasa_jpl_url": "http://ssd.jpl.nasa.gov/sbdb.cgi?sstr=3654335",
    "absolute_magnitude_h": 21.0,
    "estimated_diameter": {
        "kilometers": {
            "estimated_diameter_min": 0.1677084622,
            "estimated_diameter_max": 0.3750075218
        },
        "meters": {
            "estimated_diameter_min": 167.7084621628,
            "estimated_diameter_max": 375.0075217981
        },
        "miles": {
            "estimated_diameter_min": 0.1042091748,
            "estimated_diameter_max": 0.2330187988
        },
        "feet": {
            "estimated_diameter_min": 550.2246310023,
            "estimated_diameter_max": 1230.3396778159
        }
    },
    "is_potentially_hazardous_asteroid": false,
    "close_approach_data": [
        {
            "close_approach_date": "2013-10-31",
            "close_approach_date_full": "2013-Oct-31 21:59",
            "epoch_date_close_approach": 1383256740000,
            "relative_velocity": {
                "kilometers_per_second": "8.1755899878",
                "kilometers_per_hour": "29432.1239560033",
                "miles_per_hour": "18287.9772436622"
            },
            "miss_distance": {
                "astronomical": "0.1850228182",
                "lunar": "71.9738762798",
                "kilometers": "27679019.504117234",
                "miles": "17198945.1941724692"
            },
            "orbiting_body": "Earth"
        }
    ],
    "orbital_data": {
        "orbit_id": "14",
        "orbit_determination_date": "2020-07-20 06:29:53",
        "first_observation_date": "2013-11-28",
        "last_observation_date": "2014-01-02",
        "data_arc_in_days": 35,
        "observations_used": 45,
        "orbit_uncertainty": "7",
        "minimum_orbit_intersection": ".144915",
        "jupiter_tisserand_invariant": "3.097",
        "epoch_osculation": "2459000.5",
        "eccentricity": ".5952513782776818",
        "semi_major_axis": "2.659002793511655",
        "inclination": "6.89437075504518",
        "ascending_node_longitude": "121.4198250621911",
        "orbital_period": "1583.713494471268",
        "perihelion_distance": "1.076227715829636",
        "perihelion_argument": "261.6040010159068",
        "aphelion_distance": "4.241777871193674",
        "perihelion_time": "2459758.032511586870",
        "mean_anomaly": "187.8023738995041",
        "mean_motion": ".227313842596377",
        "equinox": "J2000",
        "orbit_class": {
            "orbit_class_type": "AMO",
            "orbit_class_description": "Near-Earth asteroid orbits similar to that of 1221 Amor",
            "orbit_class_range": "1.017 AU < q (perihelion) < 1.3 AU"
        }
    },
    "is_sentry_object": false
}